HERMES-3                
1 63835U 25052BR  26068.93751242  .00020316  00000+0  69958-3 0  9995
2 63835  97.3987 324.6131 0007993 112.9583 247.2502 15.30039785 54863
STARLINK-35403          
1 66081U 25235Z   26068.80604402  .00020620  00000+0  70629-3 0  9990
2 66081  53.1594 244.4130 0001017  94.1706 265.9411 15.30204054 22943
